BEIDOU-3 M25            
1 61186U 24168B   26062.40841492 -.00000058  00000+0  00000+0 0  9993
2 61186  54.5666 305.9191 0004276 318.3720 220.5115  1.86230084  9813
BEIDOU-3 M27            
1 61187U 24168C   26062.74108155 -.00000060  00000+0  00000+0 0  9996
2 61187  54.5619 305.8909 0002967  19.9056 157.0021  1.86230254  7298
